line1,line2,classification,launch_year,launch_number,launch_piece,epoch_year,epoch_day,mean_motion_dot,mean_motion_ddot,bstar,ephemeris_type,element_number,satellite_number,inclination,ra_of_asc_node,eccentricity,arg_of_perigee,mean_anomaly,mean_motion,rev_at_epoch,datetime,x,y,z,cartesian_cords,NORAD_CAT_ID,OBJECT_TYPE,SATNAME,SITE,Operator/Owner,Users,Purpose,anom_inclination,anom_ra_of_asc_node,anom_eccentricity,anom_arg_of_perigee,anom_mean_anomaly,anom_mean_motion,anom_count
1 00829U 64038A   21323.42303639  .00000451  00000-0  13064-3 0  9998,2 00829  60.8269 340.7638 2979652 264.1694  61.6833  9.14346644862111,U,64,038,A,21,323.42303639,4.51e-06,0.0,0.0,0,999,829,60.8269,340.7638,0.2979652,264.1694,61.6833,9.14346644,86211,2021-11-19 10:09:10.344096,8561.267146010345,-3034.504654871675,-17.891168450001533,[ 8561.26714601 -3034.50465487   -17.89116845],829,PAYLOAD,ELEKTRON 3,TTMTR,0,0,0,0.0,0.0,0.0,0.0,0.0,0.0,0.0
1 00829U 64038A   21322.76687826  .00000404  00000-0  11873-3 0  9991,2 00829  60.8271 341.6619 2979650 263.9947  61.8452  9.14345860862050,U,64,038,A,21,322.76687826,4.04e-06,0.0,0.0,0,999,829,60.8271,341.6619,0.297965,263.9947,61.8452,9.1434586,86205,2021-11-18 18:24:18.281664,8615.812808779068,-2902.643381069742,-18.004418277838166,[ 8615.81280878 -2902.64338107   -18.00441828],829,PAYLOAD,ELEKTRON 3,TTMTR,0,0,0,0.0,0.0,0.0,0.0,0.0,0.0,0.0
1 00829U 64038A   21322.43879909  .00000407  00000-0  11947-3 0  9995,2 00829  60.8272 342.1109 2979650 263.9074  61.9263  9.14345593862023,U,64,038,A,21,322.43879909,4.07e-06,0.0,0.0,0,999,829,60.8272,342.1109,0.297965,263.9074,61.9263,9.14345593,86202,2021-11-18 10:31:52.241376,8642.330559525222,-2836.3507587398235,-18.045241471357283,[ 8642.33055953 -2836.35075874   -18.04524147],829,PAYLOAD,ELEKTRON 3,TTMTR,0,0,0,0.0,0.0,0.0,0.0,0.0,0.0,0.0
1   829U 64038A   21321.78264047  .00000404  00000-0  11865-3 0  9999,2   829  60.8273 343.0089 2979648 263.7327  62.0886  9.14345013861947,U,64,038,A,21,321.78264047,4.04e-06,0.0,0.0,0,999,829,60.8273,343.0089,0.2979648,263.7327,62.0886,9.14345013,86194,2021-11-17 18:47:00.136608,8693.830369608937,-2703.0775675530567,-18.160544702212388,[ 8693.83036961 -2703.07756755   -18.1605447 ],829,PAYLOAD,ELEKTRON 3,TTMTR,0,0,0,0.0,0.0,0.0,0.0,0.0,0.0,0.0
1 00829U 64038A   21321.45456103  .00000405  00000-0  11896-3 0  9994,2 00829  60.8273 343.4579 2979648 263.6454  62.1698  9.14344724861934,U,64,038,A,21,321.45456103,4.05e-06,0.0,0.0,0,999,829,60.8273,343.4579,0.2979648,263.6454,62.1698,9.14344724,86193,2021-11-17 10:54:34.072992,8718.81149653927,-2636.095638877974,-18.21764028802729,[ 8718.81149654 -2636.09563888   -18.21764029],829,PAYLOAD,ELEKTRON 3,TTMTR,0,0,0,0.0,0.0,0.0,0.0,0.0,0.0,0.0
1 00829U 64038A   21320.79840218  .00000399  00000-0  11733-3 0  9996,2 00829  60.8276 344.3560 2979637 263.4707  62.3327  9.14344032861870,U,64,038,A,21,320.79840218,3.99e-06,0.0,0.0,0,999,829,60.8276,344.356,0.2979637,263.4707,62.3327,9.14344032,86187,2021-11-16 19:09:41.948352,8767.251485713294,-2501.4458211887695,-18.32097739124873,[ 8767.25148571 -2501.44582119   -18.32097739],829,PAYLOAD,ELEKTRON 3,TTMTR,0,0,0,0.0,0.0,0.0,0.0,0.0,0.0,0.0
1 00829U 64038A   21320.47032222  .00000439  00000-0  12764-3 0  9999,2 00829  60.8277 344.8050 2979634 263.3833  62.4143  9.14343974861844,U,64,038,A,21,320.47032222,4.39e-06,0.0,0.0,0,999,829,60.8277,344.805,0.2979634,263.3833,62.4143,9.14343974,86184,2021-11-16 11:17:15.839808,8790.695372556782,-2433.7996278656183,-18.36829729732447,[ 8790.69537256 -2433.79962787   -18.3682973 ],829,PAYLOAD,ELEKTRON 3,TTMTR,0,0,0,0.0,0.0,0.0,0.0,0.0,0.0,0.0
1 00829U 64038A   21319.48608332  .00000433  00000-0  12613-3 0  9996,2 00829  60.8279 346.1521 2979629 263.1213  62.6593  9.14342762861753,U,64,038,A,21,319.48608332,4.33e-06,0.0,0.0,0,999,829,60.8279,346.1521,0.2979629,263.1213,62.6593,9.14342762,86175,2021-11-15 11:39:57.598848,8857.902993139689,-2229.5838086950694,-18.508310706442096,[ 8857.90299314 -2229.5838087    -18.50831071],829,PAYLOAD,ELEKTRON 3,TTMTR,0,0,0,0.0,0.0,0.0,0.0,0.0,0.0,0.0
1 00829U 64038A   21318.50184336  .00000459  00000-0  13285-3 0  9995,2 00829  60.8281 347.4991 2979621 262.8594  62.9049  9.14341648861662,U,64,038,A,21,318.50184336,4.59e-06,0.0,0.0,0,999,829,60.8281,347.4991,0.2979621,262.8594,62.9049,9.14341648,86166,2021-11-14 12:02:39.266304,8920.379523379725,-2023.574556244548,-18.643107332414814,[ 8920.37952338 -2023.57455624   -18.64310733],829,PAYLOAD,ELEKTRON 3,TTMTR,0,0,0,0.0,0.0,0.0,0.0,0.0,0.0,0.0
1   829U 64038A   21317.73632287  .00000492  00000-0  14146-3 0  9996,2   829  60.8283 348.5468 2979611 262.6557  63.0965  9.14340757861570,U,64,038,A,21,317.73632287,4.92e-06,0.0,0.0,0,999,829,60.8283,348.5468,0.2979611,262.6557,63.0965,9.14340757,86157,2021-11-13 17:40:18.295968,8965.684680201632,-1862.1546451684974,-18.73260957620509,[ 8965.6846802  -1862.15464517   -18.73260958],829,PAYLOAD,ELEKTRON 3,TTMTR,0,0,0,0.0,0.0,0.0,0.0,0.0,0.0,0.0
1 00829U 64038A   21317.51760261  .00000509  00000-0  14578-3 0  9994,2 00829  60.8283 348.8461 2979609 262.5975  63.1513  9.14340528861572,U,64,038,A,21,317.51760261,5.09e-06,0.0,0.0,0,999,829,60.8283,348.8461,0.2979609,262.5975,63.1513,9.14340528,86157,2021-11-13 12:25:20.865504,8978.093463983621,-1815.8600846766499,-18.758421168155685,[ 8978.09346398 -1815.86008468   -18.75842117],829,PAYLOAD,ELEKTRON 3,TTMTR,0,0,0,0.0,0.0,0.0,0.0,0.0,0.0,0.0
1 00829U 64038A   21316.75208119  .00000579  00000-0  16386-3 0  9994,2 00829  60.8284 349.8937 2979588 262.3936  63.3436  9.14339792861503,U,64,038,A,21,316.75208119,5.79e-06,0.0,0.0,0,999,829,60.8284,349.8937,0.2979588,262.3936,63.3436,9.14339792,86150,2021-11-12 18:02:59.814816,9019.65813267071,-1653.2221681205212,-18.862843999814707,[ 9019.65813267 -1653.22216812   -18.862844  ],829,PAYLOAD,ELEKTRON 3,TTMTR,0,0,0,0.0,0.0,0.0,0.0,0.0,0.0,0.0
1 00829U 64038A   21316.42400044  .00000619  00000-0  17399-3 0  9999,2 00829  60.8286 350.3426 2979577 262.3061  63.4264  9.14339494861477,U,64,038,A,21,316.42400044,6.19e-06,0.0,0.0,0,999,829,60.8286,350.3426,0.2979577,262.3061,63.4264,9.14339494,86147,2021-11-12 10:10:33.638016,9036.587926362088,-1583.24147972762,-18.88669494816833,[ 9036.58792636 -1583.24147973   -18.88669495],829,PAYLOAD,ELEKTRON 3,TTMTR,0,0,0,0.0,0.0,0.0,0.0,0.0,0.0,0.0
1 00829U 64038A   21315.43975767  .00000682  00000-0  19026-3 0  9997,2 00829  60.8288 351.6896 2979555 262.0440  63.6745  9.14338235861386,U,64,038,A,21,315.43975767,6.82e-06,0.0,0.0,0,999,829,60.8288,351.6896,0.2979555,262.044,63.6745,9.14338235,86138,2021-11-11 10:33:15.062688,9084.098692477692,-1372.304790200102,-18.99021186848205,[ 9084.09869248 -1372.3047902    -18.99021187],829,PAYLOAD,ELEKTRON 3,TTMTR,0,0,0,0.0,0.0,0.0,0.0,0.0,0.0,0.0
1 00829U 64038A   21314.45551353  .00000755  00000-0  20914-3 0  9998,2 00829  60.8290 353.0364 2979519 261.7819  63.9235  9.14336982861295,U,64,038,A,21,314.45551353,7.55e-06,0.0,0.0,0,999,829,60.829,353.0364,0.2979519,261.7819,63.9235,9.14336982,86129,2021-11-10 10:55:56.368992,9126.712039469132,-1160.0415191412242,-19.076526580232983,[ 9126.71203947 -1160.04151914   -19.07652658],829,PAYLOAD,ELEKTRON 3,TTMTR,0,0,0,0.0,0.0,0.0,0.0,0.0,0.0,0.0
1 00829U 64038A   21313.47126819  .00000752  00000-0  20861-3 0  9992,2 00829  60.8292 354.3833 2979489 261.5202  64.1727  9.14335203861207,U,64,038,A,21,313.47126819,7.52e-06,0.0,0.0,0,999,829,60.8292,354.3833,0.2979489,261.5202,64.1727,9.14335203,86120,2021-11-09 11:18:37.571616,9164.366389395675,-946.5212099000216,-19.15891418309168,[9164.3663894  -946.5212099   -19.15891418],829,PAYLOAD,ELEKTRON 3,TTMTR,0,0,0,0.0,0.0,0.0,0.0,0.0,0.0,0.0
1 00829U 64038A   21312.81510346  .00000784  00000-0  21686-3 0  9992,2 00829  60.8292 355.2812 2979471 261.3458  64.3391  9.14334230861147,U,64,038,A,21,312.81510346,7.84e-06,0.0,0.0,0,999,829,60.8292,355.2812,0.2979471,261.3458,64.3391,9.1433423,86114,2021-11-08 19:33:44.938944,9186.699562774616,-803.5483822954806,-19.212874619362573,[9186.69956277 -803.5483823   -19.21287462],829,PAYLOAD,ELEKTRON 3,TTMTR,0,0,0,0.0,0.0,0.0,0.0,0.0,0.0,0.0
1 00829U 64038A   21312.48702095  .00000792  00000-0  21886-3 0  9990,2 00829  60.8292 355.7301 2979463 261.2586  64.4225  9.14333664861111,U,64,038,A,21,312.48702095,7.92e-06,0.0,0.0,0,999,829,60.8292,355.7301,0.2979463,261.2586,64.4225,9.14333664,86111,2021-11-08 11:41:18.610080,9197.039005045568,-731.885536268602,-19.224283078695297,[9197.03900505 -731.88553627  -19.22428308],829,PAYLOAD,ELEKTRON 3,TTMTR,0,0,0,0.0,0.0,0.0,0.0,0.0,0.0,0.0
1 00829U 64038A   21311.83085532  .00000809  00000-0  22345-3 0  9998,2 00829  60.8294 356.6280 2979444 261.0842  64.5895  9.14332552861053,U,64,038,A,21,311.83085532,8.09e-06,0.0,0.0,0,999,829,60.8294,356.628,0.2979444,261.0842,64.5895,9.14332552,86105,2021-11-07 19:56:25.899648,9216.046407168273,-588.2159713490971,-19.253464201616875,[9216.04640717 -588.21597135  -19.2534642 ],829,PAYLOAD,ELEKTRON 3,TTMTR,0,0,0,0.0,0.0,0.0,0.0,0.0,0.0,0.0
1 00829U 64038A   21311.50277232  .00000823  00000-0  22708-3 0  9991,2 00829  60.8294 357.0769 2979435 260.9970  64.6730  9.14331990861021,U,64,038,A,21,311.50277232,8.23e-06,0.0,0.0,0,999,829,60.8294,357.0769,0.2979435,260.997,64.673,9.1433199,86102,2021-11-07 12:03:59.528448,9224.705775853441,-516.2401492037937,-19.28285995328459,[9224.70577585 -516.2401492   -19.28285995],829,PAYLOAD,ELEKTRON 3,TTMTR,0,0,0,0.0,0.0,0.0,0.0,0.0,0.0,0.0
1 00829U 64038A   21310.19043792  .00000888  00000-0  24394-3 0  9991,2 00829  60.8296 358.8726 2979401 260.6484  65.0080  9.14329809860900,U,64,038,A,21,310.19043792,8.88e-06,0.0,0.0,0,999,829,60.8296,358.8726,0.2979401,260.6484,65.008,9.14329809,86090,2021-11-06 04:34:13.836288,9253.751807795377,-227.33435022001936,-19.326105174260558,[9253.7518078  -227.33435022  -19.32610517],829,PAYLOAD,ELEKTRON 3,TTMTR,0,0,0,0.0,0.0,0.0,0.0,0.0,0.0,0.0
